CCSDS_OMM_VERS = 2.0
CREATION_DATE  = 
ORIGINATOR     = 

OBJECT_NAME    = KOMPSAT-7
OBJECT_ID      = 2025-279A
CENTER_NAME    = EARTH
REF_FRAME      = TEME
TIME_SYSTEM    = UTC
MEAN_ELEMENT_THEORY = SGP/SGP4

EPOCH          = 2025-12-24T06:43:58.256832
MEAN_MOTION    = 15.00667900
ECCENTRICITY   = .00111867
INCLINATION    = 97.6458
RA_OF_ASC_NODE = 303.9466
ARG_OF_PERICENTER = 224.5500
MEAN_ANOMALY   = 135.4826

EPHEMERIS_TYPE = 0
CLASSIFICATION_TYPE = U
NORAD_CAT_ID   = 66820
ELEMENT_SET_NO = 999
REV_AT_EPOCH   = 338
BSTAR          = .25168819E-3
MEAN_MOTION_DOT = .3129E-4
MEAN_MOTION_DDOT = 0

CCSDS_OMM_VERS = 2.0
CREATION_DATE  = 
ORIGINATOR     = 

OBJECT_NAME    = STARLINK-35966
OBJECT_ID      = 2025-280A
CENTER_NAME    = EARTH
REF_FRAME      = TEME
TIME_SYSTEM    = UTC
MEAN_ELEMENT_THEORY = SGP/SGP4

EPOCH          = 2025-12-24T20:25:56.232192
MEAN_MOTION    = 15.52559258
ECCENTRICITY   = .0003203
INCLINATION    = 70.0006
RA_OF_ASC_NODE = 165.2423
ARG_OF_PERICENTER = 272.6205
MEAN_ANOMALY   = 87.4616

EPHEMERIS_TYPE = 0
CLASSIFICATION_TYPE = U
NORAD_CAT_ID   = 66821
ELEMENT_SET_NO = 999
REV_AT_EPOCH   = 481
BSTAR          = .99471E-3
MEAN_MOTION_DOT = .61592E-3
MEAN_MOTION_DDOT = 0

CCSDS_OMM_VERS = 2.0
CREATION_DATE  = 
ORIGINATOR     = 

OBJECT_NAME    = STARLINK-35958
OBJECT_ID      = 2025-280B
CENTER_NAME    = EARTH
REF_FRAME      = TEME
TIME_SYSTEM    = UTC
MEAN_ELEMENT_THEORY = SGP/SGP4

EPOCH          = 2025-12-24T20:25:26.677344
MEAN_MOTION    = 15.52605658
ECCENTRICITY   = .000373
INCLINATION    = 70.0005
RA_OF_ASC_NODE = 165.2417
ARG_OF_PERICENTER = 272.1422
MEAN_ANOMALY   = 87.9338

EPHEMERIS_TYPE = 0
CLASSIFICATION_TYPE = U
NORAD_CAT_ID   = 66822
ELEMENT_SET_NO = 999
REV_AT_EPOCH   = 481
BSTAR          = .11406E-2
MEAN_MOTION_DOT = .70855E-3
MEAN_MOTION_DDOT = 0

CCSDS_OMM_VERS = 2.0
CREATION_DATE  = 
ORIGINATOR     = 

OBJECT_NAME    = STARLINK-35957
OBJECT_ID      = 2025-280C
CENTER_NAME    = EARTH
REF_FRAME      = TEME
TIME_SYSTEM    = UTC
MEAN_ELEMENT_THEORY = SGP/SGP4

EPOCH          = 2025-12-24T20:24:57.614112
MEAN_MOTION    = 15.52611622
ECCENTRICITY   = .0003279
INCLINATION    = 70.0004
RA_OF_ASC_NODE = 165.2405
ARG_OF_PERICENTER = 272.9224
MEAN_ANOMALY   = 87.1588

EPHEMERIS_TYPE = 0
CLASSIFICATION_TYPE = U
NORAD_CAT_ID   = 66823
ELEMENT_SET_NO = 999
REV_AT_EPOCH   = 481
BSTAR          = .23178E-2
MEAN_MOTION_DOT = .145551E-2
MEAN_MOTION_DDOT = 0

CCSDS_OMM_VERS = 2.0
CREATION_DATE  = 
ORIGINATOR     = 

OBJECT_NAME    = STARLINK-35896
OBJECT_ID      = 2025-280D
CENTER_NAME    = EARTH
REF_FRAME      = TEME
TIME_SYSTEM    = UTC
MEAN_ELEMENT_THEORY = SGP/SGP4

EPOCH          = 2025-12-24T20:24:28.469664
MEAN_MOTION    = 15.52557184
ECCENTRICITY   = .0003295
INCLINATION    = 70.0004
RA_OF_ASC_NODE = 165.2388
ARG_OF_PERICENTER = 269.8029
MEAN_ANOMALY   = 90.2780

EPHEMERIS_TYPE = 0
CLASSIFICATION_TYPE = U
NORAD_CAT_ID   = 66824
ELEMENT_SET_NO = 999
REV_AT_EPOCH   = 481
BSTAR          = .13222E-2
MEAN_MOTION_DOT = .82133E-3
MEAN_MOTION_DDOT = 0

CCSDS_OMM_VERS = 2.0
CREATION_DATE  = 
ORIGINATOR     = 

OBJECT_NAME    = STARLINK-35476
OBJECT_ID      = 2025-280E
CENTER_NAME    = EARTH
REF_FRAME      = TEME
TIME_SYSTEM    = UTC
MEAN_ELEMENT_THEORY = SGP/SGP4

EPOCH          = 2025-12-24T20:23:58.812864
MEAN_MOTION    = 15.52549304
ECCENTRICITY   = .0003594
INCLINATION    = 70.0004
RA_OF_ASC_NODE = 165.2374
ARG_OF_PERICENTER = 273.6538
MEAN_ANOMALY   = 86.4238

EPHEMERIS_TYPE = 0
CLASSIFICATION_TYPE = U
NORAD_CAT_ID   = 66825
ELEMENT_SET_NO = 999
REV_AT_EPOCH   = 481
BSTAR          = .11258E-2
MEAN_MOTION_DOT = .69781E-3
MEAN_MOTION_DDOT = 0

CCSDS_OMM_VERS = 2.0
CREATION_DATE  = 
ORIGINATOR     = 

OBJECT_NAME    = STARLINK-35898
OBJECT_ID      = 2025-280F
CENTER_NAME    = EARTH
REF_FRAME      = TEME
TIME_SYSTEM    = UTC
MEAN_ELEMENT_THEORY = SGP/SGP4

EPOCH          = 2025-12-24T20:23:29.384160
MEAN_MOTION    = 15.52551984
ECCENTRICITY   = .0003148
INCLINATION    = 70.0004
RA_OF_ASC_NODE = 165.2357
ARG_OF_PERICENTER = 272.3336
MEAN_ANOMALY   = 87.7491

EPHEMERIS_TYPE = 0
CLASSIFICATION_TYPE = U
NORAD_CAT_ID   = 66826
ELEMENT_SET_NO = 999
REV_AT_EPOCH   = 481
BSTAR          = .15178E-2
MEAN_MOTION_DOT = .94434E-3
MEAN_MOTION_DDOT = 0

CCSDS_OMM_VERS = 2.0
CREATION_DATE  = 
ORIGINATOR     = 

OBJECT_NAME    = STARLINK-35959
OBJECT_ID      = 2025-280G
CENTER_NAME    = EARTH
REF_FRAME      = TEME
TIME_SYSTEM    = UTC
MEAN_ELEMENT_THEORY = SGP/SGP4

EPOCH          = 2025-12-24T20:22:59.610720
MEAN_MOTION    = 15.52563381
ECCENTRICITY   = .0003212
INCLINATION    = 70.0005
RA_OF_ASC_NODE = 165.2343
ARG_OF_PERICENTER = 273.0883
MEAN_ANOMALY   = 86.9936

EPHEMERIS_TYPE = 0
CLASSIFICATION_TYPE = U
NORAD_CAT_ID   = 66827
ELEMENT_SET_NO = 999
REV_AT_EPOCH   = 481
BSTAR          = .16361E-2
MEAN_MOTION_DOT = .101948E-2
MEAN_MOTION_DDOT = 0

CCSDS_OMM_VERS = 2.0
CREATION_DATE  = 
ORIGINATOR     = 

OBJECT_NAME    = STARLINK-35982
OBJECT_ID      = 2025-280H
CENTER_NAME    = EARTH
REF_FRAME      = TEME
TIME_SYSTEM    = UTC
MEAN_ELEMENT_THEORY = SGP/SGP4

EPOCH          = 2025-12-24T20:22:00.238368
MEAN_MOTION    = 15.52559322
ECCENTRICITY   = .0003277
INCLINATION    = 70.0005
RA_OF_ASC_NODE = 165.2316
ARG_OF_PERICENTER = 272.9901
MEAN_ANOMALY   = 87.0911

EPHEMERIS_TYPE = 0
CLASSIFICATION_TYPE = U
NORAD_CAT_ID   = 66828
ELEMENT_SET_NO = 999
REV_AT_EPOCH   = 481
BSTAR          = .12113E-2
MEAN_MOTION_DOT = .75172E-3
MEAN_MOTION_DDOT = 0

CCSDS_OMM_VERS = 2.0
CREATION_DATE  = 
ORIGINATOR     = 

OBJECT_NAME    = STARLINK-36084
OBJECT_ID      = 2025-280J
CENTER_NAME    = EARTH
REF_FRAME      = TEME
TIME_SYSTEM    = UTC
MEAN_ELEMENT_THEORY = SGP/SGP4

EPOCH          = 2025-12-24T20:22:30.093024
MEAN_MOTION    = 15.52548611
ECCENTRICITY   = .0003191
INCLINATION    = 70.0005
RA_OF_ASC_NODE = 165.2323
ARG_OF_PERICENTER = 272.3569
MEAN_ANOMALY   = 87.7253

EPHEMERIS_TYPE = 0
CLASSIFICATION_TYPE = U
NORAD_CAT_ID   = 66829
ELEMENT_SET_NO = 999
REV_AT_EPOCH   = 481
BSTAR          = .14213E-2
MEAN_MOTION_DOT = .8834E-3
MEAN_MOTION_DDOT = 0

CCSDS_OMM_VERS = 2.0
CREATION_DATE  = 
ORIGINATOR     = 

OBJECT_NAME    = STARLINK-35881
OBJECT_ID      = 2025-280K
CENTER_NAME    = EARTH
REF_FRAME      = TEME
TIME_SYSTEM    = UTC
MEAN_ELEMENT_THEORY = SGP/SGP4

EPOCH          = 2025-12-24T20:21:30.890016
MEAN_MOTION    = 15.52545776
ECCENTRICITY   = .0003258
INCLINATION    = 70.0006
RA_OF_ASC_NODE = 165.2297
ARG_OF_PERICENTER = 269.9431
MEAN_ANOMALY   = 90.1383

EPHEMERIS_TYPE = 0
CLASSIFICATION_TYPE = U
NORAD_CAT_ID   = 66830
ELEMENT_SET_NO = 999
REV_AT_EPOCH   = 481
BSTAR          = .13943E-2
MEAN_MOTION_DOT = .86631E-3
MEAN_MOTION_DDOT = 0

CCSDS_OMM_VERS = 2.0
CREATION_DATE  = 
ORIGINATOR     = 

OBJECT_NAME    = STARLINK-35788
OBJECT_ID      = 2025-280L
CENTER_NAME    = EARTH
REF_FRAME      = TEME
TIME_SYSTEM    = UTC
MEAN_ELEMENT_THEORY = SGP/SGP4

EPOCH          = 2025-12-24T20:21:01.172736
MEAN_MOTION    = 15.52551582
ECCENTRICITY   = .0003325
INCLINATION    = 70.0004
RA_OF_ASC_NODE = 165.2295
ARG_OF_PERICENTER = 274.0814
MEAN_ANOMALY   = 85.9993

EPHEMERIS_TYPE = 0
CLASSIFICATION_TYPE = U
NORAD_CAT_ID   = 66831
ELEMENT_SET_NO = 999
REV_AT_EPOCH   = 481
BSTAR          = .14538E-2
MEAN_MOTION_DOT = .90403E-3
MEAN_MOTION_DDOT = 0

